{
  "type": "FeatureCollection",
  "features": [
    {
      "type": "Feature",
      "properties": {
        "norad_id": 51444,
        "name": "CSG-2",
        "group": "resource",
        "lat": -74.39037968650402,
        "lon": -43.389115857714756,
        "alt_km": 630.872555868892,
        "timestamp": "2025-12-10T23:33:12.484568+00:00",
        "meta_object_name": "CSG-2",
        "meta_object_id": "2022-008A",
        "meta_epoch": "2025-12-10T14:17:55.088736",
        "meta_mean_motion": 14.82159097,
        "meta_eccentricity": 0.00014893,
        "meta_inclination": 97.8805,
        "meta_ra_of_asc_node": 165.951,
        "meta_arg_of_pericenter": 84.0426,
        "meta_mean_anomaly": 276.0957,
        "meta_ephemeris_type": 0,
        "meta_classification_type": "U",
        "meta_norad_cat_id": 51444,
        "meta_element_set_no": 999,
        "meta_rev_at_epoch": 20865,
        "meta_bstar": 8.5193305e-05,
        "meta_mean_motion_dot": 6.26e-06,
        "meta_mean_motion_ddot": 0,
        "tle_line1": "1 51444U 22008A   25344.59577649  .00000626  00000+0  85193-4 0  9993",
        "tle_line2": "2 51444  97.8805 165.9510 0001489  84.0426 276.0957 14.82159097208653"
      },
      "geometry": {
        "type": "Point",
        "coordinates": [
          -43.389115857714756,
          -74.39037968650402
        ]
      }
    },
    {
      "type": "Feature",
      "properties": {
        "norad_id": 52912,
        "name": "GAOFEN-12 03",
        "group": "resource",
        "lat": -9.214493078579006,
        "lon": 51.08851485144776,
        "alt_km": 635.6361265613195,
        "timestamp": "2025-12-10T23:33:12.484577+00:00",
        "meta_object_name": "GAOFEN-12 03",
        "meta_object_id": "2022-069A",
        "meta_epoch": "2025-12-10T16:12:32.791392",
        "meta_mean_motion": 14.79601171,
        "meta_eccentricity": 0.00022557,
        "meta_inclination": 97.848,
        "meta_ra_of_asc_node": 232.0718,
        "meta_arg_of_pericenter": 64.7596,
        "meta_mean_anomaly": 295.3849,
        "meta_ephemeris_type": 0,
        "meta_classification_type": "U",
        "meta_norad_cat_id": 52912,
        "meta_element_set_no": 999,
        "meta_rev_at_epoch": 18673,
        "meta_bstar": 0.0002262107,
        "meta_mean_motion_dot": 1.644e-05,
        "meta_mean_motion_ddot": 0,
        "tle_line1": "1 52912U 22069A   25344.67537953  .00001644  00000+0  22621-3 0  9991",
        "tle_line2": "2 52912  97.8480 232.0718 0002255  64.7596 295.3849 14.79601171186733"
      },
      "geometry": {
        "type": "Point",
        "coordinates": [
          51.08851485144776,
          -9.214493078579006
        ]
      }
    },
    {
      "type": "Feature",
      "properties": {
        "norad_id": 54754,
        "name": "SWOT",
        "group": "resource",
        "lat": -52.161544951492964,
        "lon": -87.07505013289006,
        "alt_km": 900.1999164635836,
        "timestamp": "2025-12-10T23:33:12.484586+00:00",
        "meta_object_name": "SWOT",
        "meta_object_id": "2022-173A",
        "meta_epoch": "2025-12-10T15:14:10.442112",
        "meta_mean_motion": 14.00174217,
        "meta_eccentricity": 3.294e-05,
        "meta_inclination": 77.6105,
        "meta_ra_of_asc_node": 289.831,
        "meta_arg_of_pericenter": 118.2647,
        "meta_mean_anomaly": 241.8538,
        "meta_ephemeris_type": 0,
        "meta_classification_type": "U",
        "meta_norad_cat_id": 54754,
        "meta_element_set_no": 999,
        "meta_rev_at_epoch": 15276,
        "meta_bstar": 4.6535878e-05,
        "meta_mean_motion_dot": 6.6e-07,
        "meta_mean_motion_ddot": 0,
        "tle_line1": "1 54754U 22173A   25344.63484308  .00000066  00000+0  46536-4 0  9993",
        "tle_line2": "2 54754  77.6105 289.8310 0000329 118.2647 241.8538 14.00174217152766"
      },
      "geometry": {
        "type": "Point",
        "coordinates": [
          -87.07505013289006,
          -52.161544951492964
        ]
      }
    },
    {
      "type": "Feature",
      "properties": {
        "norad_id": 57654,
        "name": "GAOFEN-12 04",
        "group": "resource",
        "lat": -1.9451971332501439,
        "lon": -98.96425370187431,
        "alt_km": 633.3069453047365,
        "timestamp": "2025-12-10T23:33:12.484596+00:00",
        "meta_object_name": "GAOFEN-12 04",
        "meta_object_id": "2023-123A",
        "meta_epoch": "2025-12-10T15:26:51.296064",
        "meta_mean_motion": 14.79690633,
        "meta_eccentricity": 0.0001358,
        "meta_inclination": 97.9117,
        "meta_ra_of_asc_node": 260.4326,
        "meta_arg_of_pericenter": 73.4226,
        "meta_mean_anomaly": 286.7135,
        "meta_ephemeris_type": 0,
        "meta_classification_type": "U",
        "meta_norad_cat_id": 57654,
        "meta_element_set_no": 999,
        "meta_rev_at_epoch": 12474,
        "meta_bstar": 0.00031775292,
        "meta_mean_motion_dot": 2.335e-05,
        "meta_mean_motion_ddot": 0,
        "tle_line1": "1 57654U 23123A   25344.64364926  .00002335  00000+0  31775-3 0  9994",
        "tle_line2": "2 57654  97.9117 260.4326 0001358  73.4226 286.7135 14.79690633124745"
      },
      "geometry": {
        "type": "Point",
        "coordinates": [
          -98.96425370187431,
          -1.9451971332501439
        ]
      }
    },
    {
      "type": "Feature",
      "properties": {
        "norad_id": 59065,
        "name": "PARS 1",
        "group": "resource",
        "lat": 7.411719741017929,
        "lon": -45.10003460616517,
        "alt_km": 442.52536228652843,
        "timestamp": "2025-12-10T23:33:12.484605+00:00",
        "meta_object_name": "PARS 1",
        "meta_object_id": "2024-039Q",
        "meta_epoch": "2025-12-10T15:43:42.406752",
        "meta_mean_motion": 15.40898981,
        "meta_eccentricity": 0.00126341,
        "meta_inclination": 97.4638,
        "meta_ra_of_asc_node": 315.5442,
        "meta_arg_of_pericenter": 78.5124,
        "meta_mean_anomaly": 281.7541,
        "meta_ephemeris_type": 0,
        "meta_classification_type": "U",
        "meta_norad_cat_id": 59065,
        "meta_element_set_no": 999,
        "meta_rev_at_epoch": 9956,
        "meta_bstar": 0.00041783947,
        "meta_mean_motion_dot": 0.00017149,
        "meta_mean_motion_ddot": 0,
        "tle_line1": "1 59065U 24039Q   25344.65535193  .00017149  00000+0  41784-3 0  9996",
        "tle_line2": "2 59065  97.4638 315.5442 0012634  78.5124 281.7541 15.40898981 99561"
      },
      "geometry": {
        "type": "Point",
        "coordinates": [
          -45.10003460616517,
          7.411719741017929
        ]
      }
    },
    {
      "type": "Feature",
      "properties": {
        "norad_id": 59371,
        "name": "RESURS-P 4",
        "group": "resource",
        "lat": -25.79965202908471,
        "lon": 107.8170466517034,
        "alt_km": 476.45707868437785,
        "timestamp": "2025-12-10T23:33:12.484614+00:00",
        "meta_object_name": "RESURS-P 4",
        "meta_object_id": "2024-061A",
        "meta_epoch": "2025-12-10T14:49:11.550720",
        "meta_mean_motion": 15.32058639,
        "meta_eccentricity": 0.00016874,
        "meta_inclination": 97.2543,
        "meta_ra_of_asc_node": 290.991,
        "meta_arg_of_pericenter": 53.1461,
        "meta_mean_anomaly": 306.9935,
        "meta_ephemeris_type": 0,
        "meta_classification_type": "U",
        "meta_norad_cat_id": 59371,
        "meta_element_set_no": 999,
        "meta_rev_at_epoch": 9488,
        "meta_bstar": 0.00019974916,
        "meta_mean_motion_dot": 6.107e-05,
        "meta_mean_motion_ddot": 0,
        "tle_line1": "1 59371U 24061A   25344.61749480  .00006107  00000+0  19975-3 0  9992",
        "tle_line2": "2 59371  97.2543 290.9910 0001687  53.1461 306.9935 15.32058639 94885"
      },
      "geometry": {
        "type": "Point",
        "coordinates": [
          107.8170466517034,
          -25.79965202908471
        ]
      }
    },
    {
      "type": "Feature",
      "properties": {
        "norad_id": 59625,
        "name": "LEGION 1",
        "group": "resource",
        "lat": 10.280278445611552,
        "lon": -118.99238848602467,
        "alt_km": 520.8291584081144,
        "timestamp": "2025-12-10T23:33:12.484622+00:00",
        "meta_object_name": "LEGION 1",
        "meta_object_id": "2024-081A",
        "meta_epoch": "2025-12-10T11:43:21.256608",
        "meta_mean_motion": 15.16444018,
        "meta_eccentricity": 0.00041339,
        "meta_inclination": 97.5211,
        "meta_ra_of_asc_node": 59.1458,
        "meta_arg_of_pericenter": 327.5012,
        "meta_mean_anomaly": 32.5966,
        "meta_ephemeris_type": 0,
        "meta_classification_type": "U",
        "meta_norad_cat_id": 59625,
        "meta_element_set_no": 999,
        "meta_rev_at_epoch": 8893,
        "meta_bstar": 0.00041797433,
        "meta_mean_motion_dot": 8.067e-05,
        "meta_mean_motion_ddot": 0,
        "tle_line1": "1 59625U 24081A   25344.48844047  .00008067  00000+0  41797-3 0  9990",
        "tle_line2": "2 59625  97.5211  59.1458 0004133 327.5012  32.5966 15.16444018 88930"
      },
      "geometry": {
        "type": "Point",
        "coordinates": [
          -118.99238848602467,
          10.280278445611552
        ]
      }
    }
  ]
}